{
  "type": "FeatureCollection",
  "generator": "overpass-turbo",
  "copyright": "The data included in this document is from www.openstreetmap.org. The data is made available under ODbL.",
  "timestamp": "2026-09-13T16:07:06Z",
  "features": [
    {
      "type": "Feature",
      "properties": {
        "@id": "way/294264582",
        "highway": "primary",
        "name": "Makurdi to Zaki Biam Road",
        "ref": "F121",
        "surface": "asphalt"
      },
      "geometry": {
        "type": "LineString",
        "coordinates": [
          [
            9.4445996,
            7.4871234
          ],
          [
            9.4457839,
            7.4871385
          ],
          [
            9.4464277,
            7.4871704
          ],
          [
            9.4466181,
            7.4871904
          ],
          [
            9.4474226,
            7.4872688
          ],
          [
            9.4488266,
            7.4874345
          ],
          [
            9.4493508,
            7.4875012
          ],
          [
            9.4501696,
            7.4876264
          ],
          [
            9.4512785,
            7.4878032
          ],
          [
            9.451641,
            7.4878584
          ],
          [
            9.4529824,
            7.4880366
          ],
          [
            9.4541087,
            7.4882069
          ],
          [
            9.454791,
            7.4883101
          ],
          [
            9.4553212,
            7.4883851
          ],
          [
            9.4557858,
            7.488455
          ],
          [
            9.4577854,
            7.4887165
          ],
          [
            9.4580654,
            7.4887531
          ],
          [
            9.459218,
            7.4889266
          ],
          [
            9.4605639,
            7.4891275
          ],
          [
            9.4608169,
            7.4891619
          ],
          [
            9.4614652,
            7.4892501
          ],
          [
            9.4617032,
            7.4892825
          ],
          [
            9.4623667,
            7.4893729
          ],
          [
            9.4626269,
            7.4894083
          ],
          [
            9.4630035,
            7.4894552
          ],
          [
            9.463087,
            7.4894656
          ],
          [
            9.4636492,
            7.4895356
          ],
          [
            9.4638294,
            7.489558
          ],
          [
            9.4643765,
            7.4896341
          ],
          [
            9.4655747,
            7.4898008
          ],
          [
            9.4657263,
            7.4898219
          ],
          [
            9.4663931,
            7.4899147
          ],
          [
            9.4678183,
            7.490113
          ],
          [
            9.4684586,
            7.4901995
          ],
          [
            9.4712703,
            7.4905592
          ],
          [
            9.4716981,
            7.4905828
          ],
          [
            9.4723472,
            7.4905877
          ],
          [
            9.4753262,
            7.4903835
          ],
          [
            9.475881,
            7.490367
          ],
          [
            9.4761224,
            7.4903789
          ],
          [
            9.4769702,
            7.4904774
          ],
          [
            9.4771243,
            7.4905032
          ],
          [
            9.4771598,
            7.4905091
          ],
          [
            9.4778375,
            7.4906185
          ],
          [
            9.4779021,
            7.4906289
          ],
          [
            9.4791989,
            7.4908284
          ],
          [
            9.4799298,
            7.490936
          ],
          [
            9.4805092,
            7.4910212
          ],
          [
            9.4808263,
            7.4910732
          ],
          [
            9.4819508,
            7.4912578
          ],
          [
            9.4821099,
            7.4912838
          ],
          [
            9.4829129,
            7.4914151
          ],
          [
            9.4833509,
            7.4914867
          ],
          [
            9.4836403,
            7.491534
          ],
          [
            9.4855705,
            7.4918495
          ],
          [
            9.4868275,
            7.4920628
          ],
          [
            9.4870913,
            7.4921075
          ],
          [
            9.4880864,
            7.4922351
          ],
          [
            9.4885269,
            7.4922987
          ],
          [
            9.488849,
            7.4923452
          ],
          [
            9.4894637,
            7.4924339
          ],
          [
            9.4903512,
            7.492562
          ],
          [
            9.4911095,
            7.4926715
          ],
          [
            9.4919873,
            7.4927982
          ],
          [
            9.4920655,
            7.4928095
          ],
          [
            9.4942273,
            7.4931406
          ],
          [
            9.495028,
            7.493259
          ],
          [
            9.4969699,
            7.4935435
          ],
          [
            9.4994482,
            7.4938905
          ],
          [
            9.5009547,
            7.4941152
          ],
          [
            9.5012886,
            7.494165
          ],
          [
            9.5023008,
            7.494316
          ],
          [
            9.503958,
            7.4945744
          ],
          [
            9.5053048,
            7.4947721
          ],
          [
            9.5077939,
            7.495175
          ],
          [
            9.511423,
            7.4956816
          ],
          [
            9.5117582,
            7.4957361
          ],
          [
            9.5119688,
            7.4957654
          ],
          [
            9.5157252,
            7.4963464
          ],
          [
            9.5167284,
            7.4964967
          ],
          [
            9.5178731,
            7.4966774
          ],
          [
            9.5179662,
            7.4966921
          ],
          [
            9.5181212,
            7.496713
          ],
          [
            9.5185815,
            7.496775
          ],
          [
            9.5186027,
            7.4967778
          ],
          [
            9.5193784,
            7.4968823
          ],
          [
            9.5194038,
            7.4968858
          ],
          [
            9.5198256,
            7.4969434
          ],
          [
            9.5205979,
            7.4970491
          ],
          [
            9.5207101,
            7.4970644
          ],
          [
            9.5221223,
            7.4972811
          ],
          [
            9.5241621,
            7.497587
          ],
          [
            9.5265576,
            7.497946
          ],
          [
            9.526682,
            7.4979646
          ],
          [
            9.5289901,
            7.4983409
          ],
          [
            9.5313207,
            7.4986894
          ],
          [
            9.5327197,
            7.4988953
          ],
          [
            9.5349969,
            7.4992513
          ],
          [
            9.5358117,
            7.4993784
          ],
          [
            9.5359368,
            7.4993979
          ],
          [
            9.536588,
            7.4994986
          ],
          [
            9.5379581,
            7.4997104
          ],
          [
            9.5392375,
            7.4998872
          ],
          [
            9.54071,
            7.5001279
          ],
          [
            9.5427547,
            7.5004002
          ],
          [
            9.5428571,
            7.5004138
          ],
          [
            9.5445751,
            7.500685
          ],
          [
            9.5462568,
            7.5009403
          ],
          [
            9.5482309,
            7.5012368
          ],
          [
            9.5536414,
            7.5020482
          ],
          [
            9.5560482,
            7.5024175
          ],
          [
            9.5587049,
            7.5028124
          ],
          [
            9.5598543,
            7.5029879
          ],
          [
            9.5650886,
            7.5037697
          ],
          [
            9.5654431,
            7.5038352
          ],
          [
            9.566879,
            7.5040423
          ],
          [
            9.5693533,
            7.5044119
          ],
          [
            9.5759958,
            7.5054158
          ],
          [
            9.577471,
            7.5056285
          ],
          [
            9.57972,
            7.5059689
          ],
          [
            9.5831446,
            7.5064875
          ],
          [
            9.5847319,
            7.5067276
          ],
          [
            9.5859466,
            7.5069114
          ],
          [
            9.5861855,
            7.5069475
          ],
          [
            9.5864202,
            7.5069827
          ],
          [
            9.5866019,
            7.5070127
          ],
          [
            9.5872257,
            7.507104
          ],
          [
            9.5874203,
            7.5071326
          ],
          [
            9.5877827,
            7.5071859
          ],
          [
            9.5882072,
            7.5072453
          ],
          [
            9.588975,
            7.5073637
          ],
          [
            9.5891641,
            7.5073909
          ],
          [
            9.5905112,
            7.5075791
          ],
          [
            9.5911637,
            7.5076748
          ],
          [
            9.5917384,
            7.5077572
          ],
          [
            9.5923432,
            7.5078503
          ],
          [
            9.5924592,
            7.5078696
          ],
          [
            9.5930359,
            7.507956
          ],
          [
            9.5937889,
            7.5080697
          ],
          [
            9.5938687,
            7.5080797
          ],
          [
            9.5944085,
            7.5081581
          ],
          [
            9.5953231,
            7.5082917
          ],
          [
            9.5959823,
            7.5083835
          ],
          [
            9.596158,
            7.5084141
          ],
          [
            9.5969224,
            7.5085291
          ],
          [
            9.5970469,
            7.5085477
          ],
          [
            9.5974649,
            7.5086102
          ],
          [
            9.5978779,
            7.50867
          ],
          [
            9.5980621,
            7.5086977
          ],
          [
            9.5983323,
            7.5087382
          ],
          [
            9.5984627,
            7.5087578
          ],
          [
            9.5986813,
            7.5087903
          ],
          [
            9.5992445,
            7.5088668
          ],
          [
            9.5993941,
            7.5088883
          ],
          [
            9.5996675,
            7.5089288
          ],
          [
            9.6002778,
            7.5090184
          ],
          [
            9.6009752,
            7.5091208
          ],
          [
            9.6015948,
            7.5092172
          ],
          [
            9.6019475,
            7.5092637
          ],
          [
            9.6023794,
            7.5093308
          ],
          [
            9.6024903,
            7.5093458
          ],
          [
            9.6028119,
            7.5093893
          ],
          [
            9.6039491,
            7.5095609
          ],
          [
            9.6040638,
            7.5095781
          ],
          [
            9.6051671,
            7.5097543
          ],
          [
            9.6053338,
            7.5097809
          ],
          [
            9.6066224,
            7.5099707
          ],
          [
            9.6066836,
            7.5099797
          ],
          [
            9.6075084,
            7.5101093
          ],
          [
            9.6081528,
            7.5102084
          ],
          [
            9.6086966,
            7.5102822
          ],
          [
            9.6093732,
            7.5103726
          ],
          [
            9.6111302,
            7.5105781
          ]
        ]
      },
      "id": "way/294264582"
    },
    {
      "type": "Feature",
      "properties": {
        "@id": "way/1027670743",
        "highway": "primary",
        "name": "Makurdi to Zaki Biam Road",
        "ref": "F121",
        "source": "Bing",
        "surface": "asphalt"
      },
      "geometry": {
        "type": "LineString",
        "coordinates": [
          [
            9.3648838,
            7.4977299
          ],
          [
            9.3652043,
            7.4976679
          ],
          [
            9.366145,
            7.4974447
          ],
          [
            9.3663101,
            7.4974114
          ],
          [
            9.3673474,
            7.4972193
          ],
          [
            9.368416,
            7.4970981
          ],
          [
            9.3685133,
            7.4970849
          ],
          [
            9.3721147,
            7.4964843
          ],
          [
            9.3728118,
            7.4963516
          ],
          [
            9.3755797,
            7.4958246
          ],
          [
            9.376477,
            7.4956696
          ],
          [
            9.3772168,
            7.4955061
          ],
          [
            9.3773327,
            7.4954805
          ],
          [
            9.3774936,
            7.4954449
          ],
          [
            9.377896,
            7.4953476
          ],
          [
            9.3789017,
            7.4951045
          ],
          [
            9.3791798,
            7.4950336
          ],
          [
            9.3794421,
            7.4949668
          ],
          [
            9.3800265,
            7.494818
          ],
          [
            9.380165,
            7.4947827
          ],
          [
            9.3808254,
            7.4946045
          ],
          [
            9.381525,
            7.4944158
          ],
          [
            9.3818454,
            7.4943293
          ],
          [
            9.3834415,
            7.4939366
          ],
          [
            9.3835044,
            7.4939211
          ],
          [
            9.3840735,
            7.4937704
          ],
          [
            9.3849595,
            7.4935356
          ],
          [
            9.3853931,
            7.4934549
          ],
          [
            9.3856456,
            7.493403
          ],
          [
            9.3858373,
            7.4933501
          ],
          [
            9.3866404,
            7.4931757
          ],
          [
            9.3869735,
            7.4930675
          ],
          [
            9.3872036,
            7.4930059
          ],
          [
            9.3882262,
            7.4927344
          ],
          [
            9.3883617,
            7.4927037
          ],
          [
            9.3887251,
            7.4926096
          ],
          [
            9.3900367,
            7.4922669
          ],
          [
            9.3913344,
            7.4919054
          ],
          [
            9.3914335,
            7.4918803
          ],
          [
            9.3920264,
            7.4917305
          ],
          [
            9.392518,
            7.4916062
          ],
          [
            9.3926579,
            7.4915627
          ],
          [
            9.3928726,
            7.491496
          ],
          [
            9.3936597,
            7.4911856
          ],
          [
            9.3941675,
            7.4909853
          ],
          [
            9.3951733,
            7.4905758
          ],
          [
            9.3966024,
            7.4900071
          ],
          [
            9.396851,
            7.4899082
          ],
          [
            9.3969101,
            7.489885
          ],
          [
            9.3976262,
            7.4896037
          ]
        ]
      },
      "id": "way/1027670743"
    },
    {
      "type": "Feature",
      "properties": {
        "@id": "way/1445819745",
        "highway": "primary",
        "name": "Makurdi to Zaki Biam Road",
        "ref": "F121",
        "surface": "asphalt"
      },
      "geometry": {
        "type": "LineString",
        "coordinates": [
          [
            9.3976262,
            7.4896037
          ],
          [
            9.3982175,
            7.4893658
          ],
          [
            9.3992851,
            7.4889363
          ],
          [
            9.4006504,
            7.4883871
          ],
          [
            9.4010058,
            7.4882249
          ],
          [
            9.4011265,
            7.4881743
          ],
          [
            9.4012807,
            7.4881185
          ],
          [
            9.4014564,
            7.4880401
          ],
          [
            9.401608,
            7.4879789
          ],
          [
            9.4027602,
            7.4874948
          ],
          [
            9.4028772,
            7.4874457
          ],
          [
            9.4029879,
            7.4873991
          ],
          [
            9.4030533,
            7.4873725
          ],
          [
            9.4053671,
            7.4864312
          ],
          [
            9.4072768,
            7.4856546
          ],
          [
            9.4088807,
            7.4849831
          ],
          [
            9.410651,
            7.4842957
          ],
          [
            9.4115388,
            7.4839327
          ],
          [
            9.4123743,
            7.483575
          ],
          [
            9.4137691,
            7.4830165
          ],
          [
            9.4139662,
            7.4829474
          ],
          [
            9.4141339,
            7.4828955
          ],
          [
            9.4142988,
            7.4828556
          ],
          [
            9.4145389,
            7.4828224
          ],
          [
            9.4147776,
            7.4828184
          ],
          [
            9.4150096,
            7.4828304
          ],
          [
            9.415302,
            7.4828543
          ],
          [
            9.4165726,
            7.4830712
          ],
          [
            9.4226553,
            7.4841002
          ],
          [
            9.4243933,
            7.4843861
          ],
          [
            9.4261215,
            7.4846522
          ],
          [
            9.4264626,
            7.4847076
          ],
          [
            9.4280969,
            7.484973
          ],
          [
            9.4291463,
            7.4851514
          ],
          [
            9.429789,
            7.4852606
          ],
          [
            9.4307348,
            7.485425
          ],
          [
            9.4317475,
            7.4856066
          ],
          [
            9.4322359,
            7.4856791
          ],
          [
            9.4331823,
            7.4858289
          ],
          [
            9.4333921,
            7.4858621
          ],
          [
            9.4345915,
            7.4860571
          ],
          [
            9.4354427,
            7.4861955
          ],
          [
            9.4369868,
            7.4864427
          ],
          [
            9.4370056,
            7.4864461
          ],
          [
            9.4392112,
            7.4868447
          ],
          [
            9.4403498,
            7.4870042
          ],
          [
            9.4408353,
            7.4870614
          ],
          [
            9.4410847,
            7.4870774
          ],
          [
            9.4432895,
            7.4871066
          ],
          [
            9.4445178,
            7.4871223
          ]
        ]
      },
      "id": "way/1445819745"
    },
    {
      "type": "Feature",
      "properties": {
        "@id": "way/1445819746",
        "bridge": "yes",
        "highway": "primary",
        "layer": "1",
        "name": "Makurdi to Zaki Biam Road",
        "ref": "F121",
        "surface": "asphalt"
      },
      "geometry": {
        "type": "LineString",
        "coordinates": [
          [
            9.4445178,
            7.4871223
          ],
          [
            9.4445996,
            7.4871234
          ]
        ]
      },
      "id": "way/1445819746"
    },
    {
      "type": "Feature",
      "properties": {
        "@id": "way/1451117451",
        "highway": "footway",
        "name": "path"
      },
      "geometry": {
        "type": "LineString",
        "coordinates": [
          [
            9.7450619,
            7.3496461
          ],
          [
            9.7456505,
            7.3494712
          ],
          [
            9.7458218,
            7.349331
          ],
          [
            9.7462446,
            7.3491722
          ],
          [
            9.7464052,
            7.3490593
          ],
          [
            9.7465569,
            7.3489493
          ],
          [
            9.7466339,
            7.3488439
          ]
        ]
      },
      "id": "way/1451117451"
    }
  ]
}