{
  "type": "FeatureCollection",
  "generator": "overpass-turbo",
  "copyright": "The data included in this document is from www.openstreetmap.org. The data is made available under ODbL.",
  "timestamp": "2026-09-13T18:46:41Z",
  "features": [
    {
      "type": "Feature",
      "properties": {
        "@id": "way/29283322",
        "intermittent": "yes",
        "name": "Katsina Ala",
        "waterway": "river"
      },
      "geometry": {
        "type": "LineString",
        "coordinates": [
          [
            9.7613633,
            6.87119
          ],
          [
            9.7586728,
            6.8712251
          ],
          [
            9.7558188,
            6.8716642
          ],
          [
            9.7533496,
            6.8724893
          ],
          [
            9.7478985,
            6.8743035
          ],
          [
            9.7418322,
            6.8761372
          ],
          [
            9.7399195,
            6.8765343
          ],
          [
            9.7376396,
            6.8765121
          ],
          [
            9.7355434,
            6.8761746
          ],
          [
            9.7341522,
            6.876226
          ],
          [
            9.7321857,
            6.8766231
          ],
          [
            9.7299952,
            6.8775107
          ],
          [
            9.7266871,
            6.877888
          ],
          [
            9.7224402,
            6.8792638
          ],
          [
            9.7183655,
            6.8805001
          ],
          [
            9.7141923,
            6.8812832
          ],
          [
            9.7121359,
            6.8821265
          ],
          [
            9.7096787,
            6.8829469
          ],
          [
            9.7064464,
            6.8835208
          ],
          [
            9.7018077,
            6.8843277
          ],
          [
            9.6987762,
            6.8853331
          ],
          [
            9.6953276,
            6.886242
          ],
          [
            9.6922771,
            6.8869482
          ],
          [
            9.690953,
            6.8869741
          ],
          [
            9.6899222,
            6.8867442
          ],
          [
            9.6890306,
            6.8861844
          ],
          [
            9.6862387,
            6.8835316
          ],
          [
            9.6831575,
            6.8813464
          ],
          [
            9.6814031,
            6.8799655
          ],
          [
            9.6797836,
            6.8787672
          ],
          [
            9.6786056,
            6.8785847
          ],
          [
            9.6770093,
            6.8788357
          ],
          [
            9.6755675,
            6.8792134
          ],
          [
            9.6742817,
            6.8795609
          ],
          [
            9.6728673,
            6.8800873
          ],
          [
            9.6710109,
            6.8810654
          ],
          [
            9.6699022,
            6.881902
          ],
          [
            9.6683068,
            6.8834216
          ],
          [
            9.6665308,
            6.8856523
          ],
          [
            9.6646816,
            6.8870393
          ],
          [
            9.6624284,
            6.8884347
          ],
          [
            9.6610971,
            6.8889856
          ],
          [
            9.6588946,
            6.8893017
          ],
          [
            9.6558554,
            6.8897129
          ],
          [
            9.6527206,
            6.8906123
          ],
          [
            9.6491461,
            6.8911164
          ],
          [
            9.647912,
            6.8914008
          ],
          [
            9.6449421,
            6.8925076
          ],
          [
            9.6422419,
            6.8929878
          ],
          [
            9.6395399,
            6.8932133
          ],
          [
            9.6353919,
            6.8930977
          ],
          [
            9.6339954,
            6.8928503
          ],
          [
            9.6308513,
            6.8913201
          ],
          [
            9.6272465,
            6.8891046
          ],
          [
            9.6253031,
            6.8883138
          ],
          [
            9.6240845,
            6.8881726
          ],
          [
            9.6229066,
            6.888213
          ],
          [
            9.6208858,
            6.8886116
          ],
          [
            9.6168234,
            6.8898579
          ],
          [
            9.6135846,
            6.8906325
          ],
          [
            9.610518,
            6.8909721
          ],
          [
            9.6071253,
            6.8923517
          ],
          [
            9.6058874,
            6.8928302
          ],
          [
            9.6040596,
            6.893052
          ],
          [
            9.6024126,
            6.8928645
          ],
          [
            9.5999774,
            6.8920842
          ],
          [
            9.5978571,
            6.8919643
          ],
          [
            9.5958527,
            6.8921737
          ],
          [
            9.5942705,
            6.8929512
          ],
          [
            9.5932754,
            6.8931326
          ],
          [
            9.5924125,
            6.8929872
          ],
          [
            9.5914072,
            6.892531
          ],
          [
            9.590568,
            6.891804
          ],
          [
            9.588597,
            6.8895429
          ],
          [
            9.5859238,
            6.8871313
          ],
          [
            9.5836445,
            6.8855257
          ],
          [
            9.5821666,
            6.8847319
          ],
          [
            9.5808668,
            6.8847117
          ],
          [
            9.580261,
            6.8849833
          ],
          [
            9.5796686,
            6.8854779
          ],
          [
            9.5790999,
            6.8865869
          ],
          [
            9.5785831,
            6.8887527
          ],
          [
            9.5783078,
            6.8907404
          ],
          [
            9.5782469,
            6.8921316
          ],
          [
            9.5784317,
            6.8945125
          ],
          [
            9.5783563,
            6.8959762
          ],
          [
            9.5776376,
            6.8979383
          ],
          [
            9.5766831,
            6.8992489
          ],
          [
            9.5751131,
            6.9003855
          ],
          [
            9.5705097,
            6.9023753
          ],
          [
            9.5690265,
            6.9036241
          ],
          [
            9.5671669,
            6.9055239
          ],
          [
            9.5658989,
            6.9062653
          ],
          [
            9.563344,
            6.9072208
          ],
          [
            9.5617863,
            6.9082254
          ],
          [
            9.5599326,
            6.9102734
          ],
          [
            9.5588,
            6.911386
          ],
          [
            9.5572328,
            6.9126828
          ],
          [
            9.5561701,
            6.9138661
          ],
          [
            9.5543772,
            6.9153061
          ],
          [
            9.5532548,
            6.9164892
          ],
          [
            9.5521025,
            6.9176368
          ],
          [
            9.5513879,
            6.9180146
          ],
          [
            9.550713,
            6.9181572
          ],
          [
            9.5496933,
            6.9181572
          ],
          [
            9.5478025,
            6.9177801
          ],
          [
            9.5456149,
            6.9170666
          ],
          [
            9.5439175,
            6.9161466
          ],
          [
            9.5426924,
            6.9152774
          ],
          [
            9.5413138,
            6.9145076
          ],
          [
            9.5394386,
            6.9138443
          ],
          [
            9.5378457,
            6.9135595
          ],
          [
            9.5365498,
            6.9136577
          ],
          [
            9.5356916,
            6.9139017
          ],
          [
            9.535074,
            6.9143436
          ],
          [
            9.5343239,
            6.9155304
          ],
          [
            9.5324894,
            6.9175642
          ],
          [
            9.5309532,
            6.9190746
          ],
          [
            9.5296984,
            6.9199792
          ],
          [
            9.5284113,
            6.9205715
          ],
          [
            9.5266809,
            6.9210023
          ],
          [
            9.5247924,
            6.9210847
          ],
          [
            9.5209346,
            6.9210852
          ],
          [
            9.5190768,
            6.9213841
          ],
          [
            9.5177265,
            6.9219949
          ],
          [
            9.5167246,
            6.9228735
          ],
          [
            9.5162764,
            6.9240072
          ],
          [
            9.5162764,
            6.9255041
          ],
          [
            9.5167493,
            6.926966
          ],
          [
            9.5182956,
            6.9296918
          ],
          [
            9.5187896,
            6.9320761
          ],
          [
            9.5193516,
            6.93384
          ],
          [
            9.5203692,
            6.9358253
          ],
          [
            9.5218881,
            6.9380132
          ],
          [
            9.5227819,
            6.9393465
          ],
          [
            9.5242323,
            6.9413708
          ],
          [
            9.5253299,
            6.9429498
          ],
          [
            9.5261572,
            6.9440447
          ],
          [
            9.527105,
            6.9450069
          ],
          [
            9.5278382,
            6.9455323
          ],
          [
            9.5289862,
            6.9459264
          ],
          [
            9.5301064,
            6.9463398
          ],
          [
            9.5313934,
            6.9472777
          ],
          [
            9.5325207,
            6.9481829
          ],
          [
            9.5333106,
            6.9491808
          ],
          [
            9.5337969,
            6.9497056
          ],
          [
            9.5344991,
            6.9500705
          ],
          [
            9.536218,
            6.9506292
          ],
          [
            9.5364077,
            6.9511432
          ],
          [
            9.5364281,
            6.9518891
          ],
          [
            9.5364991,
            6.9524133
          ],
          [
            9.5367936,
            6.9531894
          ],
          [
            9.5372709,
            6.9539958
          ],
          [
            9.5377786,
            6.9544595
          ],
          [
            9.5380223,
            6.9551046
          ],
          [
            9.5380159,
            6.9559806
          ],
          [
            9.5379411,
            6.956798
          ],
          [
            9.5377447,
            6.9576861
          ],
          [
            9.5371389,
            6.9588745
          ],
          [
            9.5365398,
            6.9599127
          ],
          [
            9.5360625,
            6.9605376
          ],
          [
            9.5354206,
            6.9610273
          ],
          [
            9.5332497,
            6.9619287
          ],
          [
            9.5309057,
            6.9626516
          ],
          [
            9.5291066,
            6.9629467
          ],
          [
            9.5284262,
            6.9633297
          ],
          [
            9.5278898,
            6.9639
          ],
          [
            9.5271873,
            6.9640252
          ],
          [
            9.5263242,
            6.9640051
          ],
          [
            9.5256642,
            6.964378
          ],
          [
            9.5255321,
            6.9647409
          ],
          [
            9.5251767,
            6.965134
          ],
          [
            9.5249127,
            6.9657085
          ],
          [
            9.5244862,
            6.9668475
          ],
          [
            9.5244275,
            6.9674519
          ],
          [
            9.5245675,
            6.96842
          ],
          [
            9.5247909,
            6.9690348
          ],
          [
            9.525197,
            6.9694783
          ],
          [
            9.5256161,
            6.9696599
          ],
          [
            9.52736,
            6.9702343
          ],
          [
            9.5300629,
            6.9714142
          ],
          [
            9.5327115,
            6.9724518
          ],
          [
            9.535544,
            6.9733307
          ],
          [
            9.5373623,
            6.9737218
          ],
          [
            9.5395337,
            6.9738381
          ],
          [
            9.54115,
            6.9741149
          ],
          [
            9.5424802,
            6.9747197
          ],
          [
            9.543761,
            6.975397
          ],
          [
            9.544308,
            6.9760401
          ],
          [
            9.5448259,
            6.9768263
          ],
          [
            9.5449884,
            6.9774915
          ],
          [
            9.5448767,
            6.9784592
          ],
          [
            9.5445622,
            6.9796064
          ],
          [
            9.5436378,
            6.9810999
          ],
          [
            9.5427442,
            6.9821885
          ],
          [
            9.541968,
            6.9832762
          ],
          [
            9.541353,
            6.984416
          ],
          [
            9.5408352,
            6.9850309
          ],
          [
            9.5400228,
            6.9854139
          ],
          [
            9.5389769,
            6.9855752
          ],
          [
            9.537281,
            6.9855852
          ],
          [
            9.5360828,
            6.9857465
          ],
          [
            9.5342042,
            6.9863613
          ],
          [
            9.5324444,
            6.9869661
          ],
          [
            9.5307719,
            6.9873793
          ],
          [
            9.5279997,
            6.9873894
          ],
          [
            9.5274311,
            6.9874801
          ],
          [
            9.5262531,
            6.9879942
          ],
          [
            9.5251873,
            6.9890199
          ],
          [
            9.5245675,
            6.9897479
          ],
          [
            9.5234403,
            6.9908466
          ],
          [
            9.523095,
            6.9915622
          ],
          [
            9.5231661,
            6.992943
          ],
          [
            9.523048,
            6.9937312
          ],
          [
            9.5227802,
            6.9942029
          ],
          [
            9.5219476,
            6.9958256
          ],
          [
            9.5213281,
            6.9971359
          ],
          [
            9.5211051,
            6.9979715
          ],
          [
            9.5212164,
            6.9995952
          ],
          [
            9.5214094,
            7.0009659
          ],
          [
            9.5218072,
            7.0018116
          ],
          [
            9.5227599,
            7.0027902
          ],
          [
            9.5241105,
            7.0035864
          ],
          [
            9.5259542,
            7.0043683
          ],
          [
            9.5281114,
            7.0055417
          ],
          [
            9.529198,
            7.0062573
          ],
          [
            9.5302845,
            7.0068116
          ],
          [
            9.5313903,
            7.0071275
          ],
          [
            9.5324474,
            7.0074768
          ],
          [
            9.5331481,
            7.008011
          ],
          [
            9.5335314,
            7.0085423
          ],
          [
            9.5340011,
            7.0092406
          ],
          [
            9.5343667,
            7.0106113
          ],
          [
            9.5344377,
            7.0118107
          ],
          [
            9.5343313,
            7.0132849
          ],
          [
            9.5343065,
            7.0136292
          ],
          [
            9.5341331,
            7.0147738
          ],
          [
            9.5335155,
            7.0168102
          ],
          [
            9.5330364,
            7.0188657
          ],
          [
            9.532945,
            7.0206294
          ],
          [
            9.5327318,
            7.0220102
          ],
          [
            9.5321784,
            7.0236358
          ],
          [
            9.5315538,
            7.0250236
          ],
          [
            9.5306602,
            7.0268881
          ],
          [
            9.5299145,
            7.0279939
          ],
          [
            9.5290964,
            7.0286317
          ],
          [
            9.5284567,
            7.0294077
          ],
          [
            9.5274311,
            7.0314435
          ],
          [
            9.5270249,
            7.0320684
          ],
          [
            9.5262227,
            7.0330359
          ],
          [
            9.5251679,
            7.0339257
          ],
          [
            9.52342,
            7.0354446
          ],
          [
            9.5224045,
            7.0364726
          ],
          [
            9.5206579,
            7.0381657
          ],
          [
            9.5194422,
            7.0389076
          ],
          [
            9.518391,
            7.0391449
          ],
          [
            9.5173272,
            7.0393851
          ],
          [
            9.514687,
            7.0393549
          ],
          [
            9.5123591,
            7.0394874
          ],
          [
            9.5105642,
            7.0397883
          ],
          [
            9.5091629,
            7.04001
          ],
          [
            9.5081271,
            7.0405844
          ],
          [
            9.5073452,
            7.0408464
          ],
          [
            9.505954,
            7.0409372
          ],
          [
            9.5050642,
            7.0411104
          ],
          [
            9.5042887,
            7.0415821
          ],
          [
            9.5033646,
            7.0417434
          ],
          [
            9.5020445,
            7.0418039
          ],
          [
            9.4993172,
            7.0413585
          ],
          [
            9.4982974,
            7.0412294
          ],
          [
            9.4969063,
            7.0404836
          ],
          [
            9.4953578,
            7.0399903
          ],
          [
            9.4941137,
            7.0395867
          ],
          [
            9.4934943,
            7.0389719
          ],
          [
            9.4931694,
            7.0380347
          ],
          [
            9.4928336,
            7.0366597
          ],
          [
            9.4918603,
            7.0328915
          ],
          [
            9.4918172,
            7.0327902
          ],
          [
            9.4912095,
            7.0313629
          ],
          [
            9.490783,
            7.0306474
          ],
          [
            9.4898894,
            7.0298612
          ],
          [
            9.488355,
            7.0293501
          ],
          [
            9.487036,
            7.0290852
          ],
          [
            9.4866222,
            7.0290315
          ],
          [
            9.4859494,
            7.0289441
          ],
          [
            9.4850761,
            7.0291457
          ],
          [
            9.4833516,
            7.0301526
          ],
          [
            9.4818165,
            7.0312722
          ],
          [
            9.4811057,
            7.0319071
          ],
          [
            9.4801105,
            7.0335499
          ],
          [
            9.4789475,
            7.0349551
          ],
          [
            9.4783436,
            7.0362307
          ],
          [
            9.4781811,
            7.0378129
          ],
          [
            9.4782611,
            7.0390674
          ],
          [
            9.4782679,
            7.0391739
          ],
          [
            9.4784533,
            7.0408843
          ],
          [
            9.4786687,
            7.0422963
          ],
          [
            9.4788871,
            7.0433898
          ],
          [
            9.4789075,
            7.044418
          ],
          [
            9.4786027,
            7.0457027
          ],
          [
            9.478095,
            7.0471388
          ],
          [
            9.4776837,
            7.0481113
          ],
          [
            9.477175,
            7.0498394
          ],
          [
            9.4766937,
            7.0508978
          ],
          [
            9.4761373,
            7.0516504
          ],
          [
            9.4753261,
            7.0524086
          ],
          [
            9.4745245,
            7.0532218
          ],
          [
            9.4740674,
            7.0541863
          ],
          [
            9.4738157,
            7.055037
          ],
          [
            9.4737227,
            7.0559056
          ],
          [
            9.4735018,
            7.0565995
          ],
          [
            9.4732737,
            7.0579187
          ],
          [
            9.4728397,
            7.0613001
          ],
          [
            9.4723192,
            7.0647614
          ],
          [
            9.4721973,
            7.0664645
          ],
          [
            9.4724309,
            7.0680769
          ],
          [
            9.4727962,
            7.0690397
          ],
          [
            9.4733448,
            7.0702133
          ],
          [
            9.474015,
            7.070949
          ],
          [
            9.4744415,
            7.0718156
          ],
          [
            9.4746446,
            7.0728939
          ],
          [
            9.4746954,
            7.0741737
          ],
          [
            9.4744514,
            7.0756504
          ],
          [
            9.4732183,
            7.0790757
          ],
          [
            9.4713673,
            7.0814438
          ],
          [
            9.4703414,
            7.0818256
          ],
          [
            9.4684773,
            7.0825194
          ],
          [
            9.465392,
            7.0824391
          ],
          [
            9.4618564,
            7.0802621
          ],
          [
            9.4615291,
            7.0799349
          ],
          [
            9.4594168,
            7.0778227
          ],
          [
            9.4565072,
            7.0728866
          ],
          [
            9.4549932,
            7.07217
          ],
          [
            9.4526461,
            7.0720037
          ],
          [
            9.451752,
            7.0717818
          ],
          [
            9.4515285,
            7.0708113
          ],
          [
            9.4510814,
            7.0694526
          ],
          [
            9.4504555,
            7.0676888
          ],
          [
            9.4493932,
            7.0659013
          ],
          [
            9.4486934,
            7.0644692
          ],
          [
            9.447863,
            7.0649563
          ],
          [
            9.4471199,
            7.0664291
          ],
          [
            9.4459681,
            7.0675116
          ],
          [
            9.444974,
            7.068703
          ],
          [
            9.4435092,
            7.0698131
          ],
          [
            9.4427827,
            7.0700904
          ],
          [
            9.4423064,
            7.069839
          ],
          [
            9.4414695,
            7.0693971
          ],
          [
            9.4405267,
            7.0683027
          ],
          [
            9.4387312,
            7.0668461
          ],
          [
            9.4362444,
            7.0655705
          ],
          [
            9.4346743,
            7.0647928
          ],
          [
            9.4325282,
            7.0641563
          ],
          [
            9.4313568,
            7.0637271
          ],
          [
            9.4301532,
            7.064184
          ],
          [
            9.4293708,
            7.0654319
          ],
          [
            9.4282508,
            7.0668211
          ],
          [
            9.425459,
            7.0684821
          ],
          [
            9.4233075,
            7.0694526
          ],
          [
            9.4219034,
            7.0696692
          ],
          [
            9.4207977,
            7.0698398
          ],
          [
            9.4182501,
            7.0696467
          ],
          [
            9.4169253,
            7.0690355
          ],
          [
            9.4155835,
            7.067763
          ],
          [
            9.4147312,
            7.0664848
          ],
          [
            9.4134441,
            7.0645548
          ],
          [
            9.4104264,
            7.0608288
          ],
          [
            9.4081632,
            7.0583054
          ],
          [
            9.4062266,
            7.0555062
          ],
          [
            9.4055367,
            7.0545064
          ],
          [
            9.4033761,
            7.0518809
          ],
          [
            9.4026138,
            7.0509402
          ],
          [
            9.4019322,
            7.0503052
          ],
          [
            9.4007976,
            7.0498449
          ],
          [
            9.3995395,
            7.0500702
          ],
          [
            9.3971321,
            7.0509853
          ],
          [
            9.3932319,
            7.0557993
          ],
          [
            9.3901897,
            7.0650342
          ],
          [
            9.3891521,
            7.068184
          ],
          [
            9.3880128,
            7.071105
          ],
          [
            9.3870922,
            7.0734651
          ],
          [
            9.381084,
            7.0765314
          ],
          [
            9.3722072,
            7.0785004
          ],
          [
            9.3675736,
            7.0787675
          ],
          [
            9.3622007,
            7.0796585
          ],
          [
            9.3541332,
            7.0852194
          ],
          [
            9.3458935,
            7.088456
          ],
          [
            9.3398572,
            7.0907687
          ],
          [
            9.3354412,
            7.0914056
          ],
          [
            9.3314488,
            7.0929153
          ],
          [
            9.3302723,
            7.0949293
          ],
          [
            9.3300848,
            7.0979456
          ]
        ]
      },
      "id": "way/29283322"
    },
    {
      "type": "Feature",
      "properties": {
        "@id": "way/1012784687",
        "GNS:dsg_code": "STM",
        "GNS:dsg_string": "stream",
        "GNS:id": "-2031973",
        "name": "River Zambuka",
        "source": "GNS",
        "waterway": "river"
      },
      "geometry": {
        "type": "LineString",
        "coordinates": [
          [
            10.4309426,
            6.8441736
          ],
          [
            10.4298524,
            6.846541
          ],
          [
            10.4298407,
            6.8472182
          ],
          [
            10.4298349,
            6.8478375
          ],
          [
            10.4295668,
            6.848179
          ],
          [
            10.4290421,
            6.84859
          ],
          [
            10.4287681,
            6.84859
          ],
          [
            10.4284883,
            6.8487115
          ],
          [
            10.4282492,
            6.8482195
          ],
          [
            10.4280335,
            6.8478838
          ],
          [
            10.4278412,
            6.8474092
          ],
          [
            10.4275438,
            6.846894
          ],
          [
            10.4273223,
            6.8460961
          ],
          [
            10.426962,
            6.8457131
          ],
          [
            10.4259978,
            6.845441
          ],
          [
            10.4257948,
            6.8450833
          ],
          [
            10.4257643,
            6.8448615
          ],
          [
            10.42581,
            6.8442115
          ],
          [
            10.4257998,
            6.8438538
          ],
          [
            10.4256527,
            6.8435716
          ],
          [
            10.425404,
            6.8432189
          ],
          [
            10.424998,
            6.8431433
          ],
          [
            10.4243839,
            6.84336
          ],
          [
            10.4241048,
            6.8440402
          ],
          [
            10.4236582,
            6.8444232
          ],
          [
            10.4223031,
            6.8442317
          ],
          [
            10.4211714,
            6.8444332
          ],
          [
            10.4188927,
            6.8458089
          ],
          [
            10.4170606,
            6.8460961
          ],
          [
            10.416208,
            6.8475876
          ],
          [
            10.4151524,
            6.8481217
          ],
          [
            10.4132645,
            6.8484895
          ],
          [
            10.4129397,
            6.8486457
          ],
          [
            10.4123357,
            6.8489531
          ],
          [
            10.4118942,
            6.8492151
          ],
          [
            10.4115542,
            6.8493764
          ],
          [
            10.4106001,
            6.8496485
          ],
          [
            10.4099352,
            6.8515179
          ],
          [
            10.4090877,
            6.8524702
          ],
          [
            10.4084482,
            6.8526314
          ],
          [
            10.4069765,
            6.8536795
          ],
          [
            10.4052611,
            6.8548334
          ],
          [
            10.4039568,
            6.8560175
          ],
          [
            10.4030991,
            6.8569597
          ],
          [
            10.4022009,
            6.8581338
          ],
          [
            10.4003509,
            6.858934
          ],
          [
            10.4000239,
            6.8594121
          ],
          [
            10.398566,
            6.860921
          ],
          [
            10.3971963,
            6.8615088
          ],
          [
            10.3957021,
            6.8624286
          ],
          [
            10.3955339,
            6.8633124
          ],
          [
            10.3966255,
            6.866282
          ],
          [
            10.3970331,
            6.867886
          ],
          [
            10.3977608,
            6.8701041
          ],
          [
            10.3983503,
            6.8724812
          ],
          [
            10.3984012,
            6.8732037
          ],
          [
            10.3980592,
            6.8744536
          ],
          [
            10.3983066,
            6.8768307
          ],
          [
            10.3977608,
            6.8795762
          ],
          [
            10.3966838,
            6.8841857
          ],
          [
            10.3968875,
            6.8853272
          ],
          [
            10.3968511,
            6.8855873
          ],
          [
            10.3962544,
            6.8872996
          ],
          [
            10.3957086,
            6.8878054
          ],
          [
            10.3956213,
            6.889207
          ],
          [
            10.3949372,
            6.8908615
          ],
          [
            10.3942895,
            6.8954428
          ],
          [
            10.3942305,
            6.8958369
          ],
          [
            10.3942305,
            6.8966731
          ],
          [
            10.394268,
            6.8968169
          ],
          [
            10.3942412,
            6.8969767
          ],
          [
            10.3940642,
            6.8974773
          ],
          [
            10.3939032,
            6.8977489
          ],
          [
            10.3938335,
            6.8978235
          ],
          [
            10.3935921,
            6.8979832
          ],
          [
            10.3934848,
            6.8980898
          ],
          [
            10.3930878,
            6.8983294
          ],
          [
            10.3929858,
            6.89842
          ],
          [
            10.3923957,
            6.8986649
          ],
          [
            10.3922562,
            6.8988354
          ],
          [
            10.3921489,
            6.8989099
          ],
          [
            10.3921274,
            6.8989472
          ],
          [
            10.3919557,
            6.8990857
          ],
          [
            10.3917358,
            6.8992188
          ],
          [
            10.3914032,
            6.8994105
          ],
          [
            10.3907057,
            6.8994372
          ],
          [
            10.3905662,
            6.8994585
          ],
          [
            10.3902282,
            6.8995863
          ],
          [
            10.3900566,
            6.899581
          ],
          [
            10.3899303,
            6.8995818
          ],
          [
            10.3897484,
            6.8994879
          ],
          [
            10.3892317,
            6.8983536
          ],
          [
            10.3889115,
            6.8981152
          ],
          [
            10.3880528,
            6.8983825
          ],
          [
            10.3862625,
            6.9002537
          ],
          [
            10.3841157,
            6.9006727
          ],
          [
            10.3838319,
            6.9004849
          ],
          [
            10.3837955,
            6.8999791
          ],
          [
            10.3837155,
            6.8993723
          ],
          [
            10.3831988,
            6.8985848
          ],
          [
            10.3827694,
            6.8979634
          ],
          [
            10.38234,
            6.8967425
          ],
          [
            10.3824274,
            6.8963451
          ],
          [
            10.3826238,
            6.8957743
          ],
          [
            10.3822527,
            6.8955287
          ],
          [
            10.3812775,
            6.8950013
          ],
          [
            10.3794363,
            6.8948496
          ],
          [
            10.3791234,
            6.8949291
          ],
          [
            10.3782065,
            6.8952542
          ],
          [
            10.3771003,
            6.8952903
          ],
          [
            10.3763871,
            6.895153
          ],
          [
            10.3758777,
            6.8947123
          ],
          [
            10.3759869,
            6.8943511
          ],
          [
            10.3760669,
            6.8940621
          ],
          [
            10.3767073,
            6.8931373
          ],
          [
            10.377224,
            6.8925087
          ],
          [
            10.3773696,
            6.892003
          ],
          [
            10.3771731,
            6.8909265
          ],
          [
            10.3771367,
            6.8904714
          ],
          [
            10.377013,
            6.8901824
          ],
          [
            10.376489,
            6.8899584
          ],
          [
            10.3744149,
            6.8894021
          ],
          [
            10.372763,
            6.8875742
          ],
          [
            10.3705725,
            6.8852405
          ],
          [
            10.3703323,
            6.8837378
          ],
          [
            10.3697647,
            6.8831092
          ],
          [
            10.3689642,
            6.8828057
          ],
          [
            10.3682656,
            6.8825023
          ],
          [
            10.3676542,
            6.8824951
          ],
          [
            10.3673923,
            6.8827118
          ],
          [
            10.3670502,
            6.8838028
          ],
          [
            10.3666936,
            6.8840051
          ],
          [
            10.3659513,
            6.8841279
          ],
          [
            10.3648888,
            6.8841351
          ],
          [
            10.3622544,
            6.8859486
          ],
          [
            10.3612429,
            6.8865916
          ],
          [
            10.3607989,
            6.8867072
          ],
          [
            10.3602386,
            6.8864182
          ],
          [
            10.3601731,
            6.8857607
          ],
          [
            10.3598165,
            6.8851827
          ],
          [
            10.3588995,
            6.8834054
          ],
          [
            10.3578225,
            6.8832031
          ],
          [
            10.3565853,
            6.8831525
          ],
          [
            10.3562215,
            6.8829936
          ],
          [
            10.3552245,
            6.8824011
          ],
          [
            10.3541692,
            6.8819821
          ],
          [
            10.3526555,
            6.8815342
          ],
          [
            10.3521461,
            6.8812596
          ],
          [
            10.3516294,
            6.879858
          ],
          [
            10.3513165,
            6.877611
          ],
          [
            10.3511928,
            6.8765272
          ],
          [
            10.350596,
            6.8752701
          ],
          [
            10.3505742,
            6.8746487
          ],
          [
            10.3500793,
            6.8737673
          ],
          [
            10.3497373,
            6.8735216
          ],
          [
            10.3490678,
            6.8730086
          ],
          [
            10.3484783,
            6.8725318
          ],
          [
            10.3481508,
            6.8719032
          ],
          [
            10.3476784,
            6.8711043
          ],
          [
            10.3474852,
            6.8709072
          ],
          [
            10.3474369,
            6.8707102
          ],
          [
            10.3474316,
            6.8706037
          ],
          [
            10.3474584,
            6.8705291
          ],
          [
            10.3473296,
            6.8698154
          ],
          [
            10.3472384,
            6.8695438
          ],
          [
            10.3468091,
            6.8687076
          ],
          [
            10.3466052,
            6.8682336
          ],
          [
            10.3465248,
            6.8680951
          ],
          [
            10.3464067,
            6.8678021
          ],
          [
            10.3461974,
            6.867424
          ],
          [
            10.346117,
            6.8673121
          ],
          [
            10.3459184,
            6.8671311
          ],
          [
            10.3457199,
            6.8669926
          ],
          [
            10.3452745,
            6.8664866
          ],
          [
            10.3451136,
            6.8664014
          ],
          [
            10.3450814,
            6.8663641
          ],
          [
            10.3449794,
            6.8660605
          ],
          [
            10.3448399,
            6.8658848
          ],
          [
            10.3447058,
            6.8656557
          ],
          [
            10.3444804,
            6.8650592
          ],
          [
            10.344416,
            6.864942
          ],
          [
            10.3441477,
            6.8642816
          ],
          [
            10.3438218,
            6.8637946
          ],
          [
            10.3428297,
            6.8622957
          ],
          [
            10.3421334,
            6.860546
          ],
          [
            10.3401862,
            6.8566182
          ],
          [
            10.3391817,
            6.8545258
          ],
          [
            10.3379,
            6.8526292
          ],
          [
            10.3366368,
            6.8502554
          ],
          [
            10.3361993,
            6.8502126
          ],
          [
            10.3358604,
            6.8503227
          ],
          [
            10.3354105,
            6.8505246
          ],
          [
            10.3343322,
            6.8508305
          ],
          [
            10.3328902,
            6.8513016
          ],
          [
            10.3314606,
            6.8518767
          ],
          [
            10.330222,
            6.8530575
          ],
          [
            10.326473,
            6.8558027
          ],
          [
            10.3257916,
            6.8563141
          ],
          [
            10.3255662,
            6.8565537
          ],
          [
            10.3254374,
            6.8568201
          ],
          [
            10.3252872,
            6.8570704
          ],
          [
            10.3249599,
            6.8577416
          ],
          [
            10.3247936,
            6.8580026
          ],
          [
            10.3246004,
            6.8583808
          ],
          [
            10.3245199,
            6.8585938
          ],
          [
            10.324434,
            6.8589134
          ],
          [
            10.324257,
            6.8597444
          ],
          [
            10.324096,
            6.8603409
          ],
          [
            10.3239404,
            6.8607617
          ],
          [
            10.3237794,
            6.8611133
          ],
          [
            10.3235487,
            6.8616886
          ],
          [
            10.3234414,
            6.8622745
          ],
          [
            10.3233502,
            6.8625621
          ],
          [
            10.3232375,
            6.8630522
          ],
          [
            10.3230873,
            6.8635742
          ],
          [
            10.3229853,
            6.8640589
          ],
          [
            10.3228887,
            6.8643732
          ],
          [
            10.3228404,
            6.8646235
          ],
          [
            10.3227707,
            6.8648685
          ],
          [
            10.3226956,
            6.8650337
          ],
          [
            10.3225775,
            6.8652307
          ],
          [
            10.322497,
            6.8654278
          ],
          [
            10.3219175,
            6.8660191
          ],
          [
            10.3217663,
            6.8663541
          ],
          [
            10.3216553,
            6.8667518
          ],
          [
            10.3213596,
            6.8688074
          ],
          [
            10.3205277,
            6.8698964
          ],
          [
            10.3200779,
            6.8705694
          ],
          [
            10.3199546,
            6.8709058
          ],
          [
            10.3197389,
            6.8716706
          ],
          [
            10.3197143,
            6.8720927
          ],
          [
            10.3196712,
            6.8725821
          ],
          [
            10.3199053,
            6.8735549
          ],
          [
            10.3195294,
            6.8753596
          ],
          [
            10.3186421,
            6.8772378
          ],
          [
            10.3195417,
            6.880682
          ],
          [
            10.3193261,
            6.8811653
          ],
          [
            10.3189687,
            6.8814039
          ],
          [
            10.3185312,
            6.8813856
          ],
          [
            10.3178348,
            6.8814773
          ],
          [
            10.3161464,
            6.8821625
          ],
          [
            10.3151605,
            6.883068
          ],
          [
            10.3143902,
            6.8835635
          ],
          [
            10.3134289,
            6.8840162
          ],
          [
            10.3114263,
            6.8848054
          ],
          [
            10.3107916,
            6.8850011
          ],
          [
            10.310391,
            6.8852336
          ],
          [
            10.3090292,
            6.8859127
          ],
          [
            10.3068971,
            6.8866529
          ],
          [
            10.3049745,
            6.8870995
          ],
          [
            10.3043337,
            6.8874298
          ],
          [
            10.3034402,
            6.8896628
          ],
          [
            10.3024234,
            6.8927032
          ],
          [
            10.3008829,
            6.8953643
          ],
          [
            10.3003653,
            6.896649
          ],
          [
            10.2995088,
            6.8988513
          ],
          [
            10.2991699,
            6.9001238
          ],
          [
            10.298911,
            6.9025952
          ],
          [
            10.2983749,
            6.9053847
          ],
          [
            10.2983626,
            6.9074769
          ],
          [
            10.297938,
            6.9079973
          ],
          [
            10.2957174,
            6.9093551
          ],
          [
            10.2939304,
            6.9105596
          ],
          [
            10.2926178,
            6.9107787
          ],
          [
            10.2918015,
            6.9099574
          ],
          [
            10.2914375,
            6.908709
          ],
          [
            10.2909191,
            6.9081725
          ],
          [
            10.2879409,
            6.9094427
          ],
          [
            10.2853156,
            6.909815
          ],
          [
            10.2833853,
            6.9112167
          ],
          [
            10.2816094,
            6.9125088
          ],
          [
            10.2783775,
            6.914228
          ],
          [
            10.2769435,
            6.9159472
          ],
          [
            10.2762927,
            6.9166589
          ],
          [
            10.276039,
            6.9184767
          ],
          [
            10.274958,
            6.9191118
          ],
          [
            10.272796,
            6.9192103
          ],
          [
            10.2712187,
            6.9196483
          ],
          [
            10.2677583,
            6.9206955
          ],
          [
            10.2655032,
            6.9207214
          ],
          [
            10.2644299,
            6.9210708
          ],
          [
            10.2626136,
            6.9218903
          ],
          [
            10.2607756,
            6.9228997
          ],
          [
            10.2583466,
            6.923413
          ],
          [
            10.2570127,
            6.9242973
          ],
          [
            10.2568041,
            6.9263246
          ],
          [
            10.2558395,
            6.9269544
          ],
          [
            10.2544881,
            6.9269414
          ],
          [
            10.253228,
            6.9273038
          ],
          [
            10.252233,
            6.9278214
          ],
          [
            10.2518158,
            6.9291413
          ],
          [
            10.2488535,
            6.9306458
          ],
          [
            10.2461713,
            6.9295808
          ],
          [
            10.2449053,
            6.9294743
          ],
          [
            10.2425664,
            6.9282601
          ],
          [
            10.2401417,
            6.9288992
          ],
          [
            10.2369016,
            6.9310506
          ],
          [
            10.2337336,
            6.9327646
          ],
          [
            10.2306594,
            6.9340531
          ],
          [
            10.2296695,
            6.9334671
          ],
          [
            10.2290011,
            6.9328546
          ],
          [
            10.2268858,
            6.9274944
          ],
          [
            10.2255987,
            6.9269259
          ],
          [
            10.2244419,
            6.928654
          ],
          [
            10.222395,
            6.9284739
          ],
          [
            10.2215217,
            6.9269428
          ],
          [
            10.2206107,
            6.9264778
          ],
          [
            10.2196348,
            6.9269061
          ],
          [
            10.2187078,
            6.9276761
          ],
          [
            10.2173495,
            6.9282481
          ],
          [
            10.2157938,
            6.9285996
          ],
          [
            10.2128821,
            6.9292524
          ],
          [
            10.2123456,
            6.9311055
          ],
          [
            10.212146,
            6.9323059
          ],
          [
            10.2115517,
            6.9334912
          ],
          [
            10.2104401,
            6.9336159
          ],
          [
            10.2093201,
            6.9333847
          ],
          [
            10.2085047,
            6.9304224
          ],
          [
            10.2082472,
            6.9294867
          ],
          [
            10.2075606,
            6.9287411
          ],
          [
            10.2054792,
            6.9297423
          ],
          [
            10.2050071,
            6.9306795
          ],
          [
            10.205565,
            6.9325114
          ],
          [
            10.2017241,
            6.9340664
          ],
          [
            10.1998143,
            6.935174
          ],
          [
            10.1965742,
            6.9374532
          ],
          [
            10.1950722,
            6.9394767
          ],
          [
            10.1957374,
            6.9437155
          ],
          [
            10.1957803,
            6.9467827
          ],
          [
            10.1952439,
            6.9485719
          ],
          [
            10.1959525,
            6.9505914
          ],
          [
            10.1950364,
            6.9521824
          ],
          [
            10.1947503,
            6.954259
          ],
          [
            10.1940988,
            6.9555496
          ],
          [
            10.1933341,
            6.9555583
          ],
          [
            10.1929264,
            6.9547063
          ],
          [
            10.193656,
            6.9520864
          ],
          [
            10.1933341,
            6.9509788
          ],
          [
            10.1926904,
            6.9506167
          ],
          [
            10.1922612,
            6.9508297
          ],
          [
            10.1922183,
            6.9545998
          ],
          [
            10.1918321,
            6.9594561
          ],
          [
            10.190845,
            6.9608193
          ],
          [
            10.1899867,
            6.9608619
          ],
          [
            10.1896649,
            6.961437
          ],
          [
            10.189579,
            6.9636947
          ],
          [
            10.1882272,
            6.9656117
          ],
          [
            10.1855235,
            6.9664636
          ],
          [
            10.181469,
            6.967673
          ],
          [
            10.1792601,
            6.9701119
          ],
          [
            10.1780539,
            6.9715457
          ],
          [
            10.1783964,
            6.9728612
          ],
          [
            10.1795182,
            6.9746595
          ],
          [
            10.1794388,
            6.9753641
          ],
          [
            10.1774781,
            6.9770491
          ],
          [
            10.1772647,
            6.9775812
          ],
          [
            10.1777809,
            6.9791776
          ],
          [
            10.178863,
            6.9817396
          ],
          [
            10.1792353,
            6.9852525
          ],
          [
            10.1786446,
            6.9859718
          ],
          [
            10.1774136,
            6.98609
          ],
          [
            10.1738447,
            6.9859274
          ],
          [
            10.1729761,
            6.9869325
          ],
          [
            10.1720975,
            6.9884894
          ],
          [
            10.1709657,
            6.9899477
          ],
          [
            10.16901,
            6.9910908
          ],
          [
            10.1694171,
            6.9923668
          ],
          [
            10.1706679,
            6.9934064
          ],
          [
            10.171075,
            6.9944903
          ],
          [
            10.1702857,
            6.995717
          ],
          [
            10.1693823,
            6.9954263
          ],
          [
            10.1678485,
            6.9956234
          ],
          [
            10.1678882,
            6.9965792
          ],
          [
            10.1684045,
            6.9985006
          ],
          [
            10.1677542,
            6.9991066
          ],
          [
            10.1662105,
            7.000762
          ],
          [
            10.1661013,
            7.0019543
          ],
          [
            10.1681364,
            7.0045654
          ],
          [
            10.168474,
            7.006472
          ],
          [
            10.1697298,
            7.0085954
          ],
          [
            10.1708714,
            7.009428
          ],
          [
            10.1721223,
            7.0100635
          ],
          [
            10.1745694,
            7.0104478
          ],
          [
            10.1761727,
            7.0122559
          ],
          [
            10.1766542,
            7.0137634
          ],
          [
            10.1758749,
            7.0146256
          ],
          [
            10.1729066,
            7.0159163
          ],
          [
            10.171065,
            7.0155665
          ],
          [
            10.1675606,
            7.0174485
          ],
          [
            10.1639719,
            7.0190742
          ],
          [
            10.1621055,
            7.0196211
          ],
          [
            10.159435,
            7.0204241
          ],
          [
            10.1581395,
            7.0206507
          ],
          [
            10.1579558,
            7.0209759
          ],
          [
            10.158894,
            7.0222912
          ],
          [
            10.159695,
            7.0232337
          ],
          [
            10.1606065,
            7.0243062
          ],
          [
            10.1602342,
            7.0253506
          ],
          [
            10.1592762,
            7.0260551
          ],
          [
            10.1592365,
            7.0266413
          ],
          [
            10.1601051,
            7.027198
          ],
          [
            10.1612567,
            7.028873
          ],
          [
            10.1616488,
            7.0322673
          ],
          [
            10.1623785,
            7.0350507
          ],
          [
            10.1616935,
            7.0366862
          ],
          [
            10.1606065,
            7.0370311
          ],
          [
            10.1569978,
            7.037972
          ],
          [
            10.1544316,
            7.0380212
          ],
          [
            10.1535679,
            7.0386518
          ],
          [
            10.1527489,
            7.0388587
          ],
          [
            10.1502968,
            7.0383365
          ],
          [
            10.1484205,
            7.0366862
          ],
          [
            10.1472065,
            7.036273
          ],
          [
            10.1411769,
            7.0392119
          ],
          [
            10.1360271,
            7.0381471
          ],
          [
            10.1331517,
            7.0402341
          ],
          [
            10.1285598,
            7.0416396
          ],
          [
            10.1210281,
            7.0434923
          ],
          [
            10.1188645,
            7.0444554
          ],
          [
            10.118547,
            7.0446906
          ],
          [
            10.1175305,
            7.0451534
          ],
          [
            10.1144836,
            7.0456219
          ],
          [
            10.1135609,
            7.0444293
          ],
          [
            10.1111576,
            7.0451747
          ],
          [
            10.1087758,
            7.0478153
          ],
          [
            10.1055357,
            7.0468783
          ],
          [
            10.1036474,
            7.0501153
          ],
          [
            10.0992057,
            7.0491357
          ],
          [
            10.097017,
            7.0518402
          ],
          [
            10.0954506,
            7.0521596
          ],
          [
            10.0934336,
            7.0535012
          ],
          [
            10.092189,
            7.0542465
          ],
          [
            10.0905368,
            7.054715
          ],
          [
            10.0889704,
            7.0532883
          ],
          [
            10.0862238,
            7.0539271
          ],
          [
            10.0857732,
            7.0568233
          ],
          [
            10.0847432,
            7.057164
          ],
          [
            10.0821254,
            7.0554178
          ],
          [
            10.0809023,
            7.0573769
          ],
          [
            10.0790569,
            7.0606564
          ],
          [
            10.0749156,
            7.0619128
          ],
          [
            10.0718257,
            7.062147
          ],
          [
            10.0690362,
            7.0639997
          ],
          [
            10.0660321,
            7.0633821
          ],
          [
            10.0635216,
            7.0644043
          ],
          [
            10.0594661,
            7.0662569
          ],
          [
            10.058243,
            7.0658949
          ],
          [
            10.0578568,
            7.0637867
          ],
          [
            10.0570843,
            7.0617637
          ],
          [
            10.0553677,
            7.063084
          ],
          [
            10.0528786,
            7.0665124
          ],
          [
            10.0480077,
            7.0687697
          ],
          [
            10.044789,
            7.0720064
          ],
          [
            10.0409696,
            7.0726879
          ],
          [
            10.0346181,
            7.0713676
          ],
          [
            10.0305626,
            7.0662569
          ],
          [
            10.028567,
            7.0650857
          ],
          [
            10.0269792,
            7.0652348
          ],
          [
            10.0238678,
            7.0688549
          ],
          [
            10.0240395,
            7.0700048
          ],
          [
            10.0279019,
            7.0727943
          ],
          [
            10.029876,
            7.0737313
          ],
          [
            10.0289533,
            7.0747321
          ],
          [
            10.0254986,
            7.0753497
          ],
          [
            10.0218079,
            7.0750089
          ],
          [
            10.0194261,
            7.0741785
          ],
          [
            10.0156495,
            7.0760311
          ],
          [
            10.0120017,
            7.0772235
          ],
          [
            10.008826,
            7.0777133
          ],
          [
            10.0045559,
            7.076819
          ],
          [
            9.9998996,
            7.0792678
          ],
          [
            9.9967668,
            7.0794381
          ],
          [
            9.9936339,
            7.0773939
          ],
          [
            9.9922177,
            7.0772235
          ],
          [
            9.9885056,
            7.0807797
          ],
          [
            9.9852225,
            7.0833349
          ],
          [
            9.9817035,
            7.0837395
          ],
          [
            9.9750301,
            7.0859328
          ],
          [
            9.9724981,
            7.0856134
          ],
          [
            9.9695584,
            7.0823554
          ],
          [
            9.9683139,
            7.0821212
          ],
          [
            9.9670264,
            7.0829091
          ],
          [
            9.9668333,
            7.0849959
          ],
          [
            9.9663612,
            7.0860393
          ],
          [
            9.9634859,
            7.0864651
          ],
          [
            9.9587867,
            7.0853153
          ],
          [
            9.9550745,
            7.086891
          ],
          [
            9.952049,
            7.0873169
          ],
          [
            9.946234,
            7.0853791
          ],
          [
            9.9440024,
            7.085656
          ],
          [
            9.943067,
            7.085772
          ],
          [
            9.9424574,
            7.0858476
          ],
          [
            9.9396035,
            7.0864651
          ],
          [
            9.9362776,
            7.0861883
          ],
          [
            9.934561,
            7.086891
          ],
          [
            9.9318573,
            7.0919376
          ],
          [
            9.9302051,
            7.0920654
          ],
          [
            9.9275443,
            7.0933217
          ],
          [
            9.9246475,
            7.0928958
          ],
          [
            9.9240896,
            7.0900212
          ],
          [
            9.9246046,
            7.0867207
          ],
          [
            9.9243257,
            7.085656
          ],
          [
            9.9233386,
            7.0855708
          ],
          [
            9.9167726,
            7.0886371
          ],
          [
            9.9129102,
            7.0883816
          ],
          [
            9.9105713,
            7.0886158
          ],
          [
            9.909792,
            7.0887576
          ],
          [
            9.9092838,
            7.08885
          ],
          [
            9.9077603,
            7.0893398
          ],
          [
            9.9052713,
            7.0895101
          ],
          [
            9.9015591,
            7.0896379
          ],
          [
            9.896538,
            7.0913627
          ],
          [
            9.8916671,
            7.0900212
          ],
          [
            9.8854658,
            7.0928532
          ],
          [
            9.8792002,
            7.0935346
          ],
          [
            9.8764751,
            7.0923422
          ],
          [
            9.8687503,
            7.094578
          ],
          [
            9.8619911,
            7.0946206
          ],
          [
            9.8571202,
            7.0957065
          ],
          [
            9.8513696,
            7.0955362
          ],
          [
            9.845576,
            7.0971332
          ],
          [
            9.8432157,
            7.0961537
          ],
          [
            9.8391602,
            7.0965583
          ],
          [
            9.8333881,
            7.099369
          ],
          [
            9.8293969,
            7.099518
          ],
          [
            9.8251054,
            7.0986237
          ],
          [
            9.8223374,
            7.0996458
          ],
          [
            9.8186499,
            7.1020557
          ],
          [
            9.8175127,
            7.1043767
          ],
          [
            9.8151738,
            7.1051219
          ],
          [
            9.8139078,
            7.1042489
          ],
          [
            9.8110539,
            7.1023751
          ],
          [
            9.8099167,
            7.0992663
          ],
          [
            9.8092729,
            7.0990108
          ],
          [
            9.8060757,
            7.1007356
          ],
          [
            9.8041445,
            7.1030139
          ],
          [
            9.8010117,
            7.1042702
          ],
          [
            9.7995526,
            7.1040786
          ],
          [
            9.7977716,
            7.1028649
          ],
          [
            9.795025,
            7.1005439
          ],
          [
            9.7927291,
            7.1013531
          ],
          [
            9.7897679,
            7.1030139
          ],
          [
            9.7834164,
            7.1062079
          ],
          [
            9.7776229,
            7.106144
          ],
          [
            9.7747261,
            7.106144
          ],
          [
            9.7735888,
            7.1070809
          ],
          [
            9.7718507,
            7.1083797
          ],
          [
            9.7700698,
            7.1099341
          ],
          [
            9.7681386,
            7.1102109
          ],
          [
            9.7635252,
            7.1096573
          ],
          [
            9.7599632,
            7.1102322
          ],
          [
            9.7581393,
            7.1114459
          ],
          [
            9.7546202,
            7.1119782
          ],
          [
            9.7513801,
            7.1131706
          ],
          [
            9.7473675,
            7.1131493
          ],
          [
            9.7460372,
            7.112766
          ],
          [
            9.7441918,
            7.1135113
          ],
          [
            9.7408659,
            7.1147036
          ],
          [
            9.7388274,
            7.1170458
          ],
          [
            9.7372824,
            7.1182169
          ],
          [
            9.7339136,
            7.1187492
          ],
          [
            9.7313387,
            7.1189834
          ],
          [
            9.7271078,
            7.1157476
          ],
          [
            9.7253185,
            7.1157726
          ],
          [
            9.7241401,
            7.1166589
          ],
          [
            9.7240822,
            7.1183762
          ],
          [
            9.7248775,
            7.1203489
          ],
          [
            9.7226094,
            7.1200113
          ],
          [
            9.7184638,
            7.1179357
          ],
          [
            9.7177329,
            7.1164103
          ],
          [
            9.7166997,
            7.1145348
          ],
          [
            9.7123021,
            7.1157851
          ],
          [
            9.7100339,
            7.117273
          ],
          [
            9.7066192,
            7.1168604
          ],
          [
            9.7041243,
            7.1176982
          ],
          [
            9.7015663,
            7.1195112
          ],
          [
            9.7006213,
            7.1214992
          ],
          [
            9.6992478,
            7.1218993
          ],
          [
            9.6963497,
            7.1228121
          ],
          [
            9.6932499,
            7.1242374
          ],
          [
            9.691196,
            7.1253752
          ],
          [
            9.6902006,
            7.1264505
          ],
          [
            9.6879325,
            7.1276883
          ],
          [
            9.6853241,
            7.1278384
          ],
          [
            9.6828418,
            7.1273758
          ],
          [
            9.6828796,
            7.1266631
          ],
          [
            9.6821992,
            7.1264005
          ],
          [
            9.6784694,
            7.1263505
          ],
          [
            9.6767809,
            7.1270007
          ],
          [
            9.6753193,
            7.1273758
          ],
          [
            9.6730133,
            7.128351
          ],
          [
            9.6710225,
            7.1278134
          ],
          [
            9.6697624,
            7.1262255
          ],
          [
            9.6676707,
            7.1262505
          ],
          [
            9.6661208,
            7.1268881
          ],
          [
            9.6641929,
            7.1272632
          ],
          [
            9.6620004,
            7.1275133
          ],
          [
            9.6596441,
            7.126488
          ],
          [
            9.6585857,
            7.1244
          ],
          [
            9.6573004,
            7.1236498
          ],
          [
            9.6568972,
            7.1217868
          ],
          [
            9.6581068,
            7.116973
          ],
          [
            9.6581824,
            7.113647
          ],
          [
            9.6571618,
            7.1126842
          ],
          [
            9.6549945,
            7.111934
          ],
          [
            9.6516049,
            7.1116339
          ],
          [
            9.6505969,
            7.1111338
          ],
          [
            9.6498156,
            7.1089831
          ],
          [
            9.6498408,
            7.1071701
          ],
          [
            9.6490344,
            7.1046318
          ],
          [
            9.649299,
            7.101931
          ],
          [
            9.650244,
            7.1009557
          ],
          [
            9.6521593,
            7.100343
          ],
          [
            9.6523483,
            7.0970669
          ],
          [
            9.6512413,
            7.0953962
          ],
          [
            9.6464348,
            7.0917338
          ],
          [
            9.6436024,
            7.0887953
          ],
          [
            9.6414352,
            7.0872621
          ],
          [
            9.6387744,
            7.0866659
          ],
          [
            9.6369505,
            7.0868362
          ],
          [
            9.6336889,
            7.0884546
          ],
          [
            9.6314573,
            7.0909672
          ],
          [
            9.6303845,
            7.093054
          ],
          [
            9.6301913,
            7.0957156
          ],
          [
            9.6292043,
            7.096248
          ],
          [
            9.6282387,
            7.0959925
          ],
          [
            9.6279812,
            7.0951194
          ],
          [
            9.6290112,
            7.0940122
          ],
          [
            9.6289468,
            7.0925429
          ],
          [
            9.6283674,
            7.0912653
          ],
          [
            9.6260071,
            7.0899664
          ],
          [
            9.6259856,
            7.0888378
          ],
          [
            9.6257941,
            7.0884008
          ],
          [
            9.6255565,
            7.0878583
          ],
          [
            9.6239901,
            7.0868788
          ],
          [
            9.6221447,
            7.0866233
          ],
          [
            9.6210933,
            7.0870279
          ],
          [
            9.6206856,
            7.0879435
          ],
          [
            9.6198917,
            7.0906265
          ],
          [
            9.6187973,
            7.0946297
          ],
          [
            9.616909,
            7.0960776
          ],
          [
            9.6137977,
            7.09661
          ],
          [
            9.6102786,
            7.0968229
          ],
          [
            9.6072745,
            7.0958221
          ],
          [
            9.6058154,
            7.0960989
          ],
          [
            9.6033478,
            7.0958221
          ],
          [
            9.601481,
            7.0956944
          ],
          [
            9.6008158,
            7.0974191
          ],
          [
            9.6024466,
            7.0997401
          ],
          [
            9.6022749,
            7.1030192
          ],
          [
            9.6038199,
            7.1087257
          ],
          [
            9.6066952,
            7.1116854
          ],
          [
            9.6082831,
            7.1122177
          ],
          [
            9.6120811,
            7.111877
          ],
          [
            9.6147633,
            7.1134526
          ],
          [
            9.6154928,
            7.1167956
          ],
          [
            9.6150422,
            7.1202449
          ],
          [
            9.612639,
            7.1225232
          ],
          [
            9.6095705,
            7.1233323
          ],
          [
            9.6051717,
            7.1231619
          ],
          [
            9.6027691,
            7.124179
          ],
          [
            9.5998502,
            7.1234174
          ],
          [
            9.5989061,
            7.1218631
          ],
          [
            9.5976186,
            7.1217779
          ],
          [
            9.5936918,
            7.1241201
          ],
          [
            9.5917821,
            7.1276545
          ],
          [
            9.5895076,
            7.1293579
          ],
          [
            9.5876619,
            7.1296233
          ],
          [
            9.5865464,
            7.1297837
          ],
          [
            9.5853448,
            7.1291663
          ],
          [
            9.5851731,
            7.1260576
          ],
          [
            9.5867855,
            7.1211279
          ],
          [
            9.5877252,
            7.1183011
          ],
          [
            9.5875328,
            7.1173392
          ],
          [
            9.5863045,
            7.116414
          ],
          [
            9.5836407,
            7.1159368
          ],
          [
            9.5762708,
            7.1145564
          ],
          [
            9.5743469,
            7.1149529
          ],
          [
            9.5727635,
            7.1162966
          ],
          [
            9.5709891,
            7.1168829
          ],
          [
            9.5682128,
            7.1167445
          ],
          [
            9.5659337,
            7.1159074
          ],
          [
            9.5643725,
            7.1156211
          ],
          [
            9.5633365,
            7.1168986
          ],
          [
            9.5636547,
            7.1184552
          ],
          [
            9.5628704,
            7.1210398
          ],
          [
            9.5610912,
            7.1259042
          ],
          [
            9.5607171,
            7.1267632
          ],
          [
            9.5599968,
            7.127203
          ],
          [
            9.5587145,
            7.1276467
          ],
          [
            9.5585185,
            7.127641
          ],
          [
            9.557379,
            7.1276076
          ],
          [
            9.5568745,
            7.1272225
          ],
          [
            9.5564027,
            7.1268623
          ],
          [
            9.5557244,
            7.1258808
          ],
          [
            9.5557267,
            7.1244989
          ],
          [
            9.5549757,
            7.1204747
          ],
          [
            9.5524652,
            7.1148323
          ],
          [
            9.5517356,
            7.1098711
          ],
          [
            9.5504696,
            7.1086787
          ],
          [
            9.5474017,
            7.1068017
          ],
          [
            9.5465429,
            7.1060171
          ],
          [
            9.5459024,
            7.1052337
          ],
          [
            9.5455344,
            7.1037814
          ],
          [
            9.5455054,
            7.0991548
          ],
          [
            9.545382,
            7.0987277
          ],
          [
            9.5453366,
            7.0983242
          ],
          [
            9.5453285,
            7.0979693
          ],
          [
            9.5454057,
            7.0976812
          ],
          [
            9.5454761,
            7.0974527
          ],
          [
            9.5455841,
            7.0972367
          ],
          [
            9.545945,
            7.0967792
          ],
          [
            9.5461133,
            7.09635
          ],
          [
            9.5461538,
            7.0960241
          ],
          [
            9.5462124,
            7.0955297
          ],
          [
            9.5461526,
            7.0953079
          ],
          [
            9.5458798,
            7.0950789
          ],
          [
            9.5453829,
            7.0947386
          ],
          [
            9.5449868,
            7.0946141
          ],
          [
            9.5443561,
            7.0944502
          ],
          [
            9.5437907,
            7.0943327
          ],
          [
            9.5433978,
            7.094283
          ],
          [
            9.542911,
            7.0941003
          ],
          [
            9.5423015,
            7.0937441
          ],
          [
            9.5417643,
            7.0932912
          ],
          [
            9.541157,
            7.092645
          ],
          [
            9.5394181,
            7.0912329
          ],
          [
            9.5380691,
            7.0904359
          ],
          [
            9.537012,
            7.0899347
          ],
          [
            9.5361517,
            7.0895945
          ],
          [
            9.5348349,
            7.0885263
          ],
          [
            9.5340496,
            7.0860928
          ],
          [
            9.5330828,
            7.0852385
          ],
          [
            9.5325413,
            7.0837746
          ],
          [
            9.5325099,
            7.0817324
          ],
          [
            9.5322897,
            7.0815446
          ],
          [
            9.5319338,
            7.081241
          ],
          [
            9.5311345,
            7.0813196
          ],
          [
            9.53017,
            7.082369
          ],
          [
            9.5286686,
            7.0833184
          ],
          [
            9.5272655,
            7.0835692
          ],
          [
            9.5261148,
            7.0835327
          ],
          [
            9.525917,
            7.0833758
          ],
          [
            9.5256923,
            7.0831977
          ],
          [
            9.5255143,
            7.0827434
          ],
          [
            9.525589,
            7.0817514
          ],
          [
            9.5257637,
            7.081438
          ],
          [
            9.5266352,
            7.0798741
          ],
          [
            9.5269037,
            7.0779683
          ],
          [
            9.5268478,
            7.077162
          ],
          [
            9.526832,
            7.0769346
          ],
          [
            9.5267911,
            7.0763446
          ],
          [
            9.5261405,
            7.0754193
          ],
          [
            9.5251063,
            7.0745309
          ],
          [
            9.5246131,
            7.0744706
          ],
          [
            9.5242202,
            7.074732
          ],
          [
            9.5238192,
            7.0753757
          ],
          [
            9.5228627,
            7.0758486
          ],
          [
            9.5218504,
            7.0760145
          ],
          [
            9.5184168,
            7.0750888
          ],
          [
            9.5150755,
            7.0747568
          ],
          [
            9.5116312,
            7.0740554
          ],
          [
            9.5112879,
            7.0738019
          ],
          [
            9.5110733,
            7.0732436
          ],
          [
            9.5111769,
            7.07269
          ],
          [
            9.5114918,
            7.0720218
          ],
          [
            9.511921,
            7.0714626
          ],
          [
            9.5133264,
            7.070265
          ],
          [
            9.5136218,
            7.0698887
          ],
          [
            9.5137126,
            7.0693068
          ],
          [
            9.5136462,
            7.0687452
          ],
          [
            9.5131906,
            7.0681072
          ],
          [
            9.5121608,
            7.0675049
          ],
          [
            9.5064599,
            7.0661339
          ],
          [
            9.5030052,
            7.0670708
          ],
          [
            9.5006449,
            7.0667088
          ],
          [
            9.496895,
            7.0673375
          ],
          [
            9.4959457,
            7.0674967
          ],
          [
            9.4923636,
            7.067022
          ],
          [
            9.4911177,
            7.0666237
          ],
          [
            9.4906313,
            7.0659896
          ],
          [
            9.4905169,
            7.0652182
          ],
          [
            9.4906533,
            7.0645823
          ],
          [
            9.4910962,
            7.0640683
          ],
          [
            9.4918687,
            7.0638979
          ],
          [
            9.4942291,
            7.0641322
          ],
          [
            9.4955165,
            7.0633869
          ],
          [
            9.4958488,
            7.062731
          ],
          [
            9.4958813,
            7.0619175
          ],
          [
            9.4957498,
            7.0612221
          ],
          [
            9.4953916,
            7.0607052
          ],
          [
            9.493875,
            7.0597932
          ],
          [
            9.492664,
            7.0592499
          ],
          [
            9.4856045,
            7.0602242
          ],
          [
            9.4796701,
            7.0582647
          ],
          [
            9.4787215,
            7.0575422
          ],
          [
            9.4779051,
            7.0568371
          ],
          [
            9.4766809,
            7.0557798
          ],
          [
            9.4751146,
            7.0556046
          ],
          [
            9.4743534,
            7.0562286
          ],
          [
            9.4732737,
            7.0579187
          ]
        ]
      },
      "id": "way/1012784687"
    },
    {
      "type": "Feature",
      "properties": {
        "@id": "way/1414090838",
        "name": "River Zambuka",
        "waterway": "river"
      },
      "geometry": {
        "type": "LineString",
        "coordinates": [
          [
            9.5455054,
            7.0991548
          ],
          [
            9.545696,
            7.098978
          ],
          [
            9.54582,
            7.0987319
          ],
          [
            9.5458708,
            7.0985242
          ],
          [
            9.5459521,
            7.0981772
          ],
          [
            9.5460273,
            7.0978121
          ],
          [
            9.5460714,
            7.0975535
          ],
          [
            9.5461114,
            7.0973578
          ],
          [
            9.546096,
            7.0971438
          ],
          [
            9.5460251,
            7.0968931
          ],
          [
            9.545945,
            7.0967792
          ]
        ]
      },
      "id": "way/1414090838"
    },
    {
      "type": "Feature",
      "properties": {
        "@id": "way/1416935870",
        "name": "Katsina Ala",
        "waterway": "river"
      },
      "geometry": {
        "type": "LineString",
        "coordinates": [
          [
            9.2812153,
            7.2045813
          ],
          [
            9.2824467,
            7.2006256
          ],
          [
            9.2837827,
            7.1981978
          ],
          [
            9.2856081,
            7.1963867
          ],
          [
            9.2887034,
            7.1950087
          ],
          [
            9.2917987,
            7.1944576
          ],
          [
            9.2958067,
            7.194615
          ],
          [
            9.3006555,
            7.1955674
          ]
        ]
      },
      "id": "way/1416935870"
    },
    {
      "type": "Feature",
      "properties": {
        "@id": "way/1416935871",
        "name": "Katsina Ala",
        "waterway": "river"
      },
      "geometry": {
        "type": "LineString",
        "coordinates": [
          [
            9.3054866,
            7.1957216
          ],
          [
            9.3092305,
            7.1936432
          ],
          [
            9.3124713,
            7.1940369
          ],
          [
            9.3148258,
            7.1950737
          ],
          [
            9.3171804,
            7.1963992
          ],
          [
            9.319937,
            7.1995698
          ],
          [
            9.3203481,
            7.2000426
          ]
        ]
      },
      "id": "way/1416935871"
    },
    {
      "type": "Feature",
      "properties": {
        "@id": "way/1442993046",
        "name": "River Zambuka",
        "waterway": "river"
      },
      "geometry": {
        "type": "LineString",
        "coordinates": [
          [
            9.525917,
            7.0833758
          ],
          [
            9.525876,
            7.0830647
          ],
          [
            9.5259994,
            7.0827825
          ],
          [
            9.5260343,
            7.082559
          ],
          [
            9.5260128,
            7.0823088
          ],
          [
            9.5259055,
            7.0821224
          ],
          [
            9.5258358,
            7.0818004
          ],
          [
            9.5257637,
            7.081438
          ]
        ]
      },
      "id": "way/1442993046"
    },
    {
      "type": "Feature",
      "properties": {
        "@id": "way/1443023234",
        "intermittent": "yes",
        "name": "Katsina Ala",
        "waterway": "river"
      },
      "geometry": {
        "type": "LineString",
        "coordinates": [
          [
            9.3300848,
            7.0979456
          ],
          [
            9.3295856,
            7.0986769
          ],
          [
            9.3258743,
            7.1012343
          ],
          [
            9.3256326,
            7.1010605
          ],
          [
            9.3248511,
            7.0997336
          ],
          [
            9.3244037,
            7.0969171
          ],
          [
            9.3228606,
            7.0948204
          ],
          [
            9.3199726,
            7.0939072
          ],
          [
            9.3168773,
            7.0946552
          ],
          [
            9.3145336,
            7.0963771
          ],
          [
            9.3128493,
            7.100333
          ],
          [
            9.3108745,
            7.1032762
          ],
          [
            9.306583,
            7.1048093
          ],
          [
            9.3005749,
            7.1058314
          ],
          [
            9.2993924,
            7.1066848
          ],
          [
            9.2967983,
            7.1085568
          ],
          [
            9.294395,
            7.1128154
          ],
          [
            9.2937084,
            7.1186069
          ],
          [
            9.2950817,
            7.1225247
          ],
          [
            9.2973133,
            7.1264424
          ],
          [
            9.29977,
            7.1282924
          ],
          [
            9.3008013,
            7.1303506
          ],
          [
            9.2993798,
            7.135726
          ],
          [
            9.2947384,
            7.1429646
          ],
          [
            9.2938394,
            7.1438566
          ],
          [
            9.2893148,
            7.1483461
          ],
          [
            9.2882152,
            7.1494371
          ],
          [
            9.2823787,
            7.1530139
          ],
          [
            9.2755123,
            7.1565907
          ],
          [
            9.2669292,
            7.1598269
          ],
          [
            9.2626377,
            7.1617004
          ],
          [
            9.2610927,
            7.163063
          ],
          [
            9.2597194,
            7.1676617
          ],
          [
            9.2581745,
            7.1724306
          ],
          [
            9.2571445,
            7.1777104
          ],
          [
            9.2571445,
            7.1814574
          ],
          [
            9.2583462,
            7.185034
          ],
          [
            9.2612644,
            7.1889511
          ],
          [
            9.264526,
            7.1940605
          ],
          [
            9.2658993,
            7.1984885
          ],
          [
            9.2672725,
            7.2046196
          ],
          [
            9.2698475,
            7.2075148
          ],
          [
            9.2719074,
            7.208196
          ],
          [
            9.2750899,
            7.2080657
          ],
          [
            9.2787739,
            7.205982
          ],
          [
            9.2812153,
            7.2045813
          ],
          [
            9.2857151,
            7.2037913
          ],
          [
            9.2898792,
            7.2013327
          ],
          [
            9.2963104,
            7.1966256
          ],
          [
            9.3006555,
            7.1955674
          ],
          [
            9.3054866,
            7.1957216
          ],
          [
            9.3161988,
            7.1975193
          ],
          [
            9.3203481,
            7.2000426
          ],
          [
            9.3232342,
            7.2075148
          ],
          [
            9.3266352,
            7.2131242
          ],
          [
            9.3291028,
            7.2194254
          ],
          [
            9.3292902,
            7.2204495
          ],
          [
            9.3307873,
            7.2286321
          ],
          [
            9.3323078,
            7.2319917
          ],
          [
            9.331098,
            7.2376355
          ],
          [
            9.3327053,
            7.2401063
          ],
          [
            9.3379335,
            7.2481434
          ],
          [
            9.3407012,
            7.2490494
          ],
          [
            9.3410468,
            7.2506764
          ],
          [
            9.3414157,
            7.2562534
          ],
          [
            9.3438214,
            7.2593485
          ],
          [
            9.3476101,
            7.2642228
          ],
          [
            9.3519016,
            7.2696718
          ],
          [
            9.3532904,
            7.2716399
          ],
          [
            9.3548058,
            7.2737873
          ],
          [
            9.3567081,
            7.276483
          ],
          [
            9.3604847,
            7.2824427
          ],
          [
            9.3627163,
            7.2870402
          ],
          [
            9.3640896,
            7.2938511
          ],
          [
            9.3637462,
            7.3038971
          ],
          [
            9.3609997,
            7.3110483
          ],
          [
            9.3570514,
            7.3146239
          ],
          [
            9.3510433,
            7.316667
          ],
          [
            9.3336721,
            7.3194209
          ],
          [
            9.3261506,
            7.320542
          ],
          [
            9.3214883,
            7.3221349
          ],
          [
            9.3191143,
            7.3256909
          ],
          [
            9.3183065,
            7.3275513
          ],
          [
            9.3191926,
            7.3289403
          ],
          [
            9.3204897,
            7.3302181
          ],
          [
            9.3239431,
            7.3342003
          ],
          [
            9.326945,
            7.3375905
          ],
          [
            9.3284642,
            7.3419915
          ],
          [
            9.3279287,
            7.3436386
          ],
          [
            9.3270107,
            7.3464622
          ],
          [
            9.3259793,
            7.3510629
          ],
          [
            9.3254203,
            7.3535561
          ],
          [
            9.3248971,
            7.3558897
          ],
          [
            9.3237491,
            7.3612739
          ],
          [
            9.322612,
            7.3639631
          ],
          [
            9.3215175,
            7.3665515
          ],
          [
            9.3179126,
            7.3696159
          ],
          [
            9.3169039,
            7.3705897
          ],
          [
            9.3151661,
            7.3710892
          ],
          [
            9.3093296,
            7.3685944
          ],
          [
            9.3038364,
            7.3650193
          ],
          [
            9.2961117,
            7.3629763
          ],
          [
            9.2907902,
            7.3622953
          ],
          [
            9.2887433,
            7.3630281
          ],
          [
            9.2855951,
            7.364789
          ],
          [
            9.2805349,
            7.3684237
          ],
          [
            9.2784305,
            7.371829
          ],
          [
            9.2768856,
            7.3769363
          ],
          [
            9.2760633,
            7.3782105
          ],
          [
            9.2751016,
            7.3797007
          ],
          [
            9.274139,
            7.3811923
          ],
          [
            9.2736918,
            7.3815566
          ],
          [
            9.2693325,
            7.3851077
          ],
          [
            9.2614361,
            7.3893636
          ],
          [
            9.2606702,
            7.3896168
          ],
          [
            9.2506214,
            7.3929386
          ],
          [
            9.2434116,
            7.3970242
          ],
          [
            9.2399784,
            7.3982158
          ],
          [
            9.2365452,
            7.3966837
          ],
          [
            9.2325969,
            7.3922576
          ],
          [
            9.2283054,
            7.3880018
          ],
          [
            9.221439,
            7.384597
          ],
          [
            9.2166758,
            7.3839138
          ],
          [
            9.2150875,
            7.3834054
          ],
          [
            9.2143733,
            7.3832505
          ],
          [
            9.2095943,
            7.3822137
          ],
          [
            9.2058178,
            7.3823839
          ]
        ]
      },
      "id": "way/1443023234"
    }
  ]
}